#aV2024 10  7  0  0  0.00000000     288 DD+AD WGS84 FIT  NGA
## 2335  86400.00000000   300.00000000 60590 0.0000000000000
+   31     2  3  4  5  6  7  8  9 10 11 12 13 14 15 16 17 18
+         19 20 21 22 23 24 25 26 27 28 29 30 31 32  0  0  0
+          0  0  0  0  0  0  0  0  0  0  0  0  0  0  0  0  0
+          0  0  0  0  0  0  0  0  0  0  0  0  0  0  0  0  0
+          0  0  0  0  0  0  0  0  0  0  0  0  0  0  0  0  0
++         2  2  2  2  2  2  2  2  2  2  2  2  2  2  2  2  2
++         2  2  2  2  2  2  2  2  2  2  2  2  2  2  0  0  0
++         0  0  0  0  0  0  0  0  0  0  0  0  0  0  0  0  0
++         0  0  0  0  0  0  0  0  0  0  0  0  0  0  0  0  0
++         0  0  0  0  0  0  0  0  0  0  0  0  0  0  0  0  0
%c cc cc ccc ccc cccc cccc cccc cccc ccccc ccccc ccccc ccccc
%c cc cc ccc ccc cccc cccc cccc cccc ccccc ccccc ccccc ccccc
%f  0.0000000  0.000000000  0.00000000000  0.000000000000000
%f  0.0000000  0.000000000  0.00000000000  0.000000000000000
%i    0    0    0    0      0      0      0      0         0
%i    0    0    0    0      0      0      0      0         0
/*      NGA, ST. LOUIS,MO.                                  
/*   EPHEMERIS COMPUTED FROM 2 DAYS OF DATA                 
/*   EPOCHA v9 SMOOTHER                                     
/*   G2296 IERS2010 SATIGS SATAPC                           
*  2024 10  7  1 45  0.00000000
P  2  13810.172589 -22110.765281  -3542.860804   -342.561551                    
V  2   5433.983343  -2295.117353  31691.249236      0.081764                    
P  3   6258.277419 -13589.350221 -22103.133129    562.189289                    
V  3  26888.007306   6234.262473   3913.668756      0.122880                    
P  4   2299.588684 -23314.370404 -12359.708132    457.117194                    
V  4   6510.330114  14539.672240 -26329.134619      0.068854                    
P  5 -21480.064598   6221.627067  14199.332513   -188.972126                    
V  5 -17738.593719  -4830.223345 -24341.755076     -0.012131                    
P  6 -15848.321594  -3275.664458 -21016.274939    -20.285569                    
V  6  17880.729581 -19888.668693 -10246.541308     -0.271630                    
P  7   -490.979267 -19251.077320  18623.319860    -30.068617                    
V  7  16606.658772 -15681.729897 -16691.627793      0.036725                    
P  8   9770.210561 -14476.120914  19769.309629    376.423401                    
V  8  10073.681963  23492.300298  12584.088067      0.119582                    
P  9  -6539.453614 -25519.238410  -3192.111849    387.723700                    
V  9   4029.583368   2774.728271 -31416.425355      0.164173                    
P 10  23127.767975  10690.892740   8311.639167   -149.712156                    
V 10 -10234.069887   -643.383071  29760.380257     -0.130986                    
P 11 -21509.405421   9986.182526 -11859.964936   -741.797541                    
V 11   9062.316089 -12324.437823 -26798.638961     -0.032914                    
P 12 -11046.176388  12156.941620 -21143.516474   -543.337029                    
V 12 -24974.023591  -7987.184529   8614.063893     -0.026882                    
P 13 -13962.209638   5793.905210  21588.098667    680.230024                    
V 13  -5109.874393 -27485.738343   4259.138601      0.018669                    
P 14 -20400.968855 -13138.225217  11108.355523    511.919845                    
V 14  14222.479727    669.447896  26797.300367      0.084604                    
P 15  -7565.995113  16187.061343  19082.965902    212.769832                    
V 15 -13020.333374 -21977.801222  13284.195877      0.044484                    
P 16  24360.354560   -346.885371  10758.340182   -161.591120                    
V 16  12747.361585   6232.316951 -27346.269737      0.100503                    
P 17 -13366.881979 -19288.500670 -11839.504324    603.929284                    
V 17  -1518.075860 -15869.093651  26805.401684     -0.124816                    
P 18    585.031260  18330.638999  19151.856664   -656.967710                    
V 18 -17598.398243  16815.521697 -15794.853582     -0.015637                    
P 19 -15505.367442 -11585.487535 -18522.559716    547.345149                    
V 19  -3582.543674 -22795.665499  16980.062868      0.047527                    
P 20 -26166.989268   1750.025502   3725.151432    369.921233                    
V 20  -4560.043309  -3215.701091 -31268.104997     -0.003616                    
P 21  16771.341971 -19747.401548   2221.574025    100.298562                    
V 21   1496.420329   4159.383694  32307.992358     -0.007715                    
P 22 -24023.006726 -10360.568696   3905.961545    -68.758244                    
V 22   5194.616135  -1527.692158  31430.208952     -0.034366                    
P 23  12551.957833  14795.028044  18270.485764    336.156888                    
V 23 -22809.077139  -3176.706637  18054.454385      0.082434                    
P 24 -14030.928398  22182.314537  -2608.035063   -485.482938                    
V 24  -4865.140431    -82.820194  31187.506999      0.009792                    
P 25   3455.050335  16133.340231 -21203.715988    499.581964                    
V 25 -25749.912020  -4445.684573  -7443.395278     -0.000648                    
P 26  26373.346253   4433.109522  -1363.593653     61.934764                    
V 26  -1953.556243   3198.242740 -30764.491604     -0.091472                    
P 27  14982.283929  -2646.690786  21498.200310    -34.383892                    
V 27   8737.235210  26580.976140  -2362.316609     -0.002781                    
P 28  14913.745360   5417.560365 -21314.494900   -437.142890                    
V 28 -17079.292836  20955.714102  -6624.531345     -0.131417                    
P 29   2726.053728  25898.566290  -4919.570529   -573.019695                    
V 29  -3965.301760  -5436.464765 -31199.218826      0.026277                    
P 30 -10076.605172 -12343.156357  21381.909248   -307.351786                    
V 30  18389.434039 -19663.961949  -2970.322510      0.073900                    
P 31  20927.049489  -5851.093872 -15757.522084   -223.743590                    
V 31 -12093.430771  15339.877316 -21716.284846      0.005381                    
P 32  15309.004353  17349.849313 -13007.213383   -589.607022                    
V 32   3266.050081  16604.489599  25367.719628      0.042328                    
EOF
